start=new Date('2022-10-25T00:00:00.000Z').valueOf();
sats=[{"NORAD_CAT_ID":"53222","OBJECT_NAME":"STARLINK-4381","RCS_SIZE":"LARGE","MEAN_MOTION_DOT":"-0.00002427","COUNTRY_CODE":"US","OBJECT_TYPE":"PAYLOAD","ARG_OF_PERICENTER":"113.0411","MEAN_MOTION_DDOT":"0.0000000000000","RA_OF_ASC_NODE":"357.0896","ELEMENT_SET_NO":"999","EPOCH":"2022-10-24T16:01:14.869344","FILE":"3631857","PERIOD":"95.921","SITE":"AFWTR","TLE_LINE2":"2 53222  97.6554 357.0896 0001678 113.0411 247.0991 15.01242035 14474","OBJECT_ID":"2022-084AK","REV_AT_EPOCH":"1447","APOAPSIS":"564.232","EPHEMERIS_TYPE":"0","MEAN_MOTION":"15.01242035","DECAY_DATE":null,"LAUNCH_DATE":"2022-07-22","INCLINATION":"97.6554","ECCENTRICITY":"0.00016780","TLE_LINE1":"1 53222U 22084AK  22297.66753321 -.00002427  00000-0 -18448-3 0  9990","CLASSIFICATION_TYPE":"U","MEAN_ELEMENT_THEORY":"SGP4","TIME_SYSTEM":"UTC","MEAN_ANOMALY":"247.0991","REF_FRAME":"TEME","SEMIMAJOR_AXIS":"6941.202","GP_ID":"216073657","PERIAPSIS":"561.902","CENTER_NAME":"EARTH","BSTAR":"-0.00018448000000"},{"FILE":"3631857","PERIOD":"95.920","EPOCH":"2022-10-24T15:50:34.998720","RA_OF_ASC_NODE":"357.0893","ELEMENT_SET_NO":"999","TLE_LINE2":"2 53223  97.6565 357.0893 0001762  63.8187 296.3218 15.01251678 14472","SITE":"AFWTR","COUNTRY_CODE":"US","MEAN_MOTION_DOT":"-0.00002126","NORAD_CAT_ID":"53223","OBJECT_NAME":"STARLINK-4354","RCS_SIZE":"LARGE","MEAN_MOTION_DDOT":"0.0000000000000","ARG_OF_PERICENTER":"63.8187","OBJECT_TYPE":"PAYLOAD","GP_ID":"216074401","MEAN_ANOMALY":"296.3218","TIME_SYSTEM":"UTC","REF_FRAME":"TEME","SEMIMAJOR_AXIS":"6941.172","CLASSIFICATION_TYPE":"U","MEAN_ELEMENT_THEORY":"SGP4","CENTER_NAME":"EARTH","BSTAR":"-0.00016103000000","PERIAPSIS":"561.814","EPHEMERIS_TYPE":"0","MEAN_MOTION":"15.01251678","OBJECT_ID":"2022-084AL","REV_AT_EPOCH":"1447","APOAPSIS":"564.261","ECCENTRICITY":"0.00017620","TLE_LINE1":"1 53223U 22084AL  22297.66012730 -.00002126  00000-0 -16103-3 0  9995","INCLINATION":"97.6565","DECAY_DATE":null,"LAUNCH_DATE":"2022-07-22"},{"LAUNCH_DATE":"2022-07-22","DECAY_DATE":null,"INCLINATION":"97.6560","ECCENTRICITY":"0.00006980","TLE_LINE1":"1 53224U 22084AM  22297.66567202 -.00000427  00000-0 -28646-4 0  9993","REV_AT_EPOCH":"1447","OBJECT_ID":"2022-084AM","APOAPSIS":"563.518","EPHEMERIS_TYPE":"0","MEAN_MOTION":"15.01252903","PERIAPSIS":"562.549","CENTER_NAME":"EARTH","BSTAR":"-0.00002864600000","CLASSIFICATION_TYPE":"U","MEAN_ELEMENT_THEORY":"SGP4","MEAN_ANOMALY":"296.3197","TIME_SYSTEM":"UTC","SEMIMAJOR_AXIS":"6941.169","REF_FRAME":"TEME","GP_ID":"216073820","OBJECT_TYPE":"PAYLOAD","ARG_OF_PERICENTER":"63.8099","MEAN_MOTION_DDOT":"0.0000000000000","OBJECT_NAME":"STARLINK-4356","NORAD_CAT_ID":"53224","RCS_SIZE":"LARGE","MEAN_MOTION_DOT":"-0.00000427","COUNTRY_CODE":"US","SITE":"AFWTR","TLE_LINE2":"2 53224  97.6560 357.0897 0000698  63.8099 296.3197 15.01252903 14479","RA_OF_ASC_NODE":"357.0897","ELEMENT_SET_NO":"999","EPOCH":"2022-10-24T15:58:34.062528","FILE":"3631857","PERIOD":"95.920"},{"SITE":"AFWTR","TLE_LINE2":"2 53225  97.6578 357.0870 0004043  55.9941 304.1666 15.01236170 14473","RA_OF_ASC_NODE":"357.0870","ELEMENT_SET_NO":"999","EPOCH":"2022-10-24T15:45:15.365376","FILE":"3631857","PERIOD":"95.921","OBJECT_TYPE":"PAYLOAD","ARG_OF_PERICENTER":"55.9941","MEAN_MOTION_DDOT":"0.0000000000000","NORAD_CAT_ID":"53225","OBJECT_NAME":"STARLINK-4358","RCS_SIZE":"LARGE","MEAN_MOTION_DOT":"-0.00005049","COUNTRY_CODE":"US","PERIAPSIS":"560.279","CENTER_NAME":"EARTH","BSTAR":"-0.00038895000000","CLASSIFICATION_TYPE":"U","MEAN_ELEMENT_THEORY":"SGP4","TIME_SYSTEM":"UTC","MEAN_ANOMALY":"304.1666","REF_FRAME":"TEME","SEMIMAJOR_AXIS":"6941.220","GP_ID":"216074566","LAUNCH_DATE":"2022-07-22","DECAY_DATE":null,"INCLINATION":"97.6578","ECCENTRICITY":"0.00040430","TLE_LINE1":"1 53225U 22084AN  22297.65642784 -.00005049  00000-0 -38895-3 0  9993","REV_AT_EPOCH":"1447","OBJECT_ID":"2022-084AN","APOAPSIS":"565.892","EPHEMERIS_TYPE":"0","MEAN_MOTION":"15.01236170"},{"SEMIMAJOR_AXIS":"6941.138","REF_FRAME":"TEME","TIME_SYSTEM":"UTC","MEAN_ANOMALY":"278.0586","MEAN_ELEMENT_THEORY":"SGP4","CLASSIFICATION_TYPE":"U","GP_ID":"216074075","PERIAPSIS":"561.903","BSTAR":"0.00007198800000","CENTER_NAME":"EARTH","APOAPSIS":"564.102","REV_AT_EPOCH":"1449","OBJECT_ID":"2022-084AP","MEAN_MOTION":"15.01263028","EPHEMERIS_TYPE":"0","DECAY_DATE":null,"LAUNCH_DATE":"2022-07-22","TLE_LINE1":"1 53226U 22084AP  22297.79366232  .00000866  00000-0  71988-4 0  9991","ECCENTRICITY":"0.00015840","INCLINATION":"97.6569","ELEMENT_SET_NO":"999","RA_OF_ASC_NODE":"357.2211","PERIOD":"95.919","FILE":"3631857","EPOCH":"2022-10-24T19:02:52.424448","TLE_LINE2":"2 53226  97.6569 357.2211 0001584  82.0818 278.0586 15.01263028 14490","SITE":"AFWTR","MEAN_MOTION_DOT":"0.00000866","RCS_SIZE":"LARGE","OBJECT_NAME":"STARLINK-4359","NORAD_CAT_ID":"53226","COUNTRY_CODE":"US","OBJECT_TYPE":"PAYLOAD","MEAN_MOTION_DDOT":"0.0000000000000","ARG_OF_PERICENTER":"82.0818"},{"INCLINATION":"97.6580","ECCENTRICITY":"0.00019050","TLE_LINE1":"1 53227U 22084AQ  22297.71959408  .00002205  00000-0  17613-3 0  9990","DECAY_DATE":null,"LAUNCH_DATE":"2022-07-22","EPHEMERIS_TYPE":"0","MEAN_MOTION":"15.01274161","REV_AT_EPOCH":"1448","OBJECT_ID":"2022-084AQ","APOAPSIS":"564.290","CENTER_NAME":"EARTH","BSTAR":"0.00017613000000","PERIAPSIS":"561.646","GP_ID":"216073984","CLASSIFICATION_TYPE":"U","MEAN_ELEMENT_THEORY":"SGP4","TIME_SYSTEM":"UTC","MEAN_ANOMALY":"296.9976","REF_FRAME":"TEME","SEMIMAJOR_AXIS":"6941.103","ARG_OF_PERICENTER":"63.1443","MEAN_MOTION_DDOT":"0.0000000000000","OBJECT_TYPE":"PAYLOAD","COUNTRY_CODE":"US","OBJECT_NAME":"STARLINK-4366","NORAD_CAT_ID":"53227","RCS_SIZE":"LARGE","MEAN_MOTION_DOT":"0.00002205","SITE":"AFWTR","TLE_LINE2":"2 53227  97.6580 357.1619 0001905  63.1443 296.9976 15.01274161 14487","EPOCH":"2022-10-24T17:16:12.928512","FILE":"3631857","PERIOD":"95.919","RA_OF_ASC_NODE":"357.1619","ELEMENT_SET_NO":"999"},{"INCLINATION":"97.6573","ECCENTRICITY":"0.00017770","TLE_LINE1":"1 53228U 22084AR  22297.65827411 -.00001620  00000-0 -12160-3 0  9996","DECAY_DATE":null,"LAUNCH_DATE":"2022-07-22","EPHEMERIS_TYPE":"0","MEAN_MOTION":"15.01249336","REV_AT_EPOCH":"1447","OBJECT_ID":"2022-084AR","APOAPSIS":"564.278","CENTER_NAME":"EARTH","BSTAR":"-0.00012160000000","PERIAPSIS":"561.811","GP_ID":"216074238","CLASSIFICATION_TYPE":"U","MEAN_ELEMENT_THEORY":"SGP4","MEAN_ANOMALY":"288.2864","TIME_SYSTEM":"UTC","REF_FRAME":"TEME","SEMIMAJOR_AXIS":"6941.180","ARG_OF_PERICENTER":"71.8553","MEAN_MOTION_DDOT":"0.0000000000000","OBJECT_TYPE":"PAYLOAD","COUNTRY_CODE":"US","OBJECT_NAME":"STARLINK-4365","NORAD_CAT_ID":"53228","RCS_SIZE":"LARGE","MEAN_MOTION_DOT":"-0.00001620","SITE":"AFWTR","TLE_LINE2":"2 53228  97.6573 357.0911 0001777  71.8553 288.2864 15.01249336 14474","EPOCH":"2022-10-24T15:47:54.883104","FILE":"3631857","PERIOD":"95.920","RA_OF_ASC_NODE":"357.0911","ELEMENT_SET_NO":"999"},{"COUNTRY_CODE":"US","RCS_SIZE":"LARGE","NORAD_CAT_ID":"53229","OBJECT_NAME":"STARLINK-4367","MEAN_MOTION_DOT":"-0.00001950","ARG_OF_PERICENTER":"96.9269","MEAN_MOTION_DDOT":"0.0000000000000","OBJECT_TYPE":"PAYLOAD","EPOCH":"2022-10-24T17:15:53.254368","PERIOD":"95.920","FILE":"3631857","ELEMENT_SET_NO":"999","RA_OF_ASC_NODE":"357.1593","SITE":"AFWTR","TLE_LINE2":"2 53229  97.6583 357.1593 0001897  96.9269 263.2171 15.01246995 14481","MEAN_MOTION":"15.01246995","EPHEMERIS_TYPE":"0","APOAPSIS":"564.369","REV_AT_EPOCH":"1448","OBJECT_ID":"2022-084AS","INCLINATION":"97.6583","TLE_LINE1":"1 53229U 22084AS  22297.71936637 -.00001950  00000-0 -14733-3 0  9999","ECCENTRICITY":"0.00018970","DECAY_DATE":null,"LAUNCH_DATE":"2022-07-22","GP_ID":"216074801","MEAN_ELEMENT_THEORY":"SGP4","CLASSIFICATION_TYPE":"U","SEMIMAJOR_AXIS":"6941.187","REF_FRAME":"TEME","TIME_SYSTEM":"UTC","MEAN_ANOMALY":"263.2171","BSTAR":"-0.00014733000000","CENTER_NAME":"EARTH","PERIAPSIS":"561.735"},{"GP_ID":"216073658","MEAN_ELEMENT_THEORY":"SGP4","CLASSIFICATION_TYPE":"U","REF_FRAME":"TEME","SEMIMAJOR_AXIS":"6941.222","TIME_SYSTEM":"UTC","MEAN_ANOMALY":"284.5758","BSTAR":"-0.00028666000000","CENTER_NAME":"EARTH","PERIAPSIS":"561.653","MEAN_MOTION":"15.01235465","EPHEMERIS_TYPE":"0","APOAPSIS":"564.522","REV_AT_EPOCH":"1448","OBJECT_ID":"2022-084AT","INCLINATION":"97.6580","TLE_LINE1":"1 53230U 22084AT  22297.72123690 -.00003737  00000-0 -28666-3 0  9994","ECCENTRICITY":"0.00020670","LAUNCH_DATE":"2022-07-22","DECAY_DATE":null,"EPOCH":"2022-10-24T17:18:34.868160","PERIOD":"95.921","FILE":"3631857","ELEMENT_SET_NO":"999","RA_OF_ASC_NODE":"357.1528","SITE":"AFWTR","TLE_LINE2":"2 53230  97.6580 357.1528 0002067  75.5695 284.5758 15.01235465 14481","COUNTRY_CODE":"US","RCS_SIZE":"LARGE","OBJECT_NAME":"STARLINK-4364","NORAD_CAT_ID":"53230","MEAN_MOTION_DOT":"-0.00003737","ARG_OF_PERICENTER":"75.5695","MEAN_MOTION_DDOT":"0.0000000000000","OBJECT_TYPE":"PAYLOAD"},{"REV_AT_EPOCH":"1449","OBJECT_ID":"2022-084AU","APOAPSIS":"564.705","EPHEMERIS_TYPE":"0","MEAN_MOTION":"15.01244687","LAUNCH_DATE":"2022-07-22","DECAY_DATE":null,"ECCENTRICITY":"0.00023710","TLE_LINE1":"1 53231U 22084AU  22297.78232761 -.00001808  00000-0 -13626-3 0  9998","INCLINATION":"97.6580","TIME_SYSTEM":"UTC","MEAN_ANOMALY":"283.0287","SEMIMAJOR_AXIS":"6941.194","REF_FRAME":"TEME","CLASSIFICATION_TYPE":"U","MEAN_ELEMENT_THEORY":"SGP4","GP_ID":"216074402","PERIAPSIS":"561.413","CENTER_NAME":"EARTH","BSTAR":"-0.00013626000000","MEAN_MOTION_DOT":"-0.00001808","OBJECT_NAME":"STARLINK-4370","NORAD_CAT_ID":"53231","RCS_SIZE":"LARGE","COUNTRY_CODE":"US","OBJECT_TYPE":"PAYLOAD","MEAN_MOTION_DDOT":"0.0000000000000","ARG_OF_PERICENTER":"77.1201","RA_OF_ASC_NODE":"357.2196","ELEMENT_SET_NO":"999","FILE":"3631857","PERIOD":"95.920","EPOCH":"2022-10-24T18:46:33.105504","TLE_LINE2":"2 53231  97.6580 357.2196 0002371  77.1201 283.0287 15.01244687 14491","SITE":"AFWTR"}];
